{"type":"FeatureCollection","features":[{"type":"Feature","id":"node/358763812","geometry":{"type":"Point","coordinates":[-122.7349901,38.8321256]},"properties":{"building_id":"node/358763812","building_name":"Cobb Valley School","amenity":"school","candidate_type":"OSM public-use amenity","source":"OpenStreetMap via Overpass API","source_license":"ODbL"}},{"type":"Feature","id":"node/358768036","geometry":{"type":"Point","coordinates":[-122.5497109,39.3801617]},"properties":{"building_id":"node/358768036","building_name":"Indian Valley School","amenity":"school","candidate_type":"OSM public-use amenity","source":"OpenStreetMap via Overpass API","source_license":"ODbL"}},{"type":"Feature","id":"node/358771325","geometry":{"type":"Point","coordinates":[-122.765824,38.911567]},"properties":{"building_id":"node/358771325","building_name":"Mountain School","amenity":"school","candidate_type":"OSM public-use amenity","source":"OpenStreetMap via Overpass API","source_license":"ODbL"}},{"type":"Feature","id":"node/358775856","geometry":{"type":"Point","coordinates":[-122.4924856,39.3018307]},"properties":{"building_id":"node/358775856","building_name":"Little Stony School","amenity":"school","candidate_type":"OSM public-use amenity","source":"OpenStreetMap via Overpass API","source_license":"ODbL"}},{"type":"Feature","id":"node/358777763","geometry":{"type":"Point","coordinates":[-122.6083688,38.9146929]},"properties":{"building_id":"node/358777763","building_name":"Lower Lake High School","amenity":"school","candidate_type":"OSM public-use amenity","source":"OpenStreetMap via Overpass API","source_license":"ODbL"}},{"type":"Feature","id":"node/358777765","geometry":{"type":"Point","coordinates":[-122.9187116,39.0607574]},"properties":{"building_id":"node/358777765","building_name":"Clear Lake High School","amenity":"school","candidate_type":"OSM public-use amenity","source":"OpenStreetMap via Overpass API","source_license":"ODbL"}},{"type":"Feature","id":"node/358777819","geometry":{"type":"Point","coordinates":[-122.9019401,39.1648907]},"properties":{"building_id":"node/358777819","building_name":"Upper Lake Union High School","amenity":"school","candidate_type":"OSM public-use amenity","source":"OpenStreetMap via Overpass API","source_license":"ODbL"}},{"type":"Feature","id":"node/358778428","geometry":{"type":"Point","coordinates":[-122.9677768,38.7599088]},"properties":{"building_id":"node/358778428","building_name":"Washington School","amenity":"school","candidate_type":"OSM public-use amenity","source":"OpenStreetMap via Overpass API","source_license":"ODbL"}},{"type":"Feature","id":"node/358778659","geometry":{"type":"Point","coordinates":[-122.9039022,39.1206121]},"properties":{"building_id":"node/358778659","building_name":"Westlake School","amenity":"school","candidate_type":"OSM public-use amenity","source":"OpenStreetMap via Overpass API","source_license":"ODbL"}},{"type":"Feature","id":"node/358822634","geometry":{"type":"Point","coordinates":[-122.5458218,39.3746063]},"properties":{"building_id":"node/358822634","building_name":"Stonyford Community Church","amenity":"place_of_worship","candidate_type":"OSM public-use amenity","source":"OpenStreetMap via Overpass API","source_license":"ODbL"}},{"type":"Feature","id":"node/358830086","geometry":{"type":"Point","coordinates":[-122.9143478,39.0429655]},"properties":{"building_id":"node/358830086","building_name":"First Church of Christ Scientist","amenity":"place_of_worship","candidate_type":"OSM public-use amenity","source":"OpenStreetMap via Overpass API","source_license":"ODbL"}},{"type":"Feature","id":"node/358830094","geometry":{"type":"Point","coordinates":[-122.9149518,39.059757]},"properties":{"building_id":"node/358830094","building_name":"Lakeport Elementary School","amenity":"school","candidate_type":"OSM public-use amenity","source":"OpenStreetMap via Overpass API","source_license":"ODbL"}},{"type":"Feature","id":"node/358830099","geometry":{"type":"Point","coordinates":[-122.9030512,39.165724]},"properties":{"building_id":"node/358830099","building_name":"Seventh Day Adventist Church","amenity":"place_of_worship","candidate_type":"OSM public-use amenity","source":"OpenStreetMap via Overpass API","source_license":"ODbL"}},{"type":"Feature","id":"node/358830110","geometry":{"type":"Point","coordinates":[-122.9181597,39.0598669]},"properties":{"building_id":"node/358830110","building_name":"Terrace Elementary School","amenity":"school","candidate_type":"OSM public-use amenity","source":"OpenStreetMap via Overpass API","source_license":"ODbL"}},{"type":"Feature","id":"node/358830131","geometry":{"type":"Point","coordinates":[-122.8752721,39.0026742]},"properties":{"building_id":"node/358830131","building_name":"Big Valley Community Church","amenity":"place_of_worship","candidate_type":"OSM public-use amenity","source":"OpenStreetMap via Overpass API","source_license":"ODbL"}},{"type":"Feature","id":"node/358830133","geometry":{"type":"Point","coordinates":[-122.6172058,38.9462867]},"properties":{"building_id":"node/358830133","building_name":"Church of Christ","amenity":"place_of_worship","candidate_type":"OSM public-use amenity","source":"OpenStreetMap via Overpass API","source_license":"ODbL"}},{"type":"Feature","id":"node/358830141","geometry":{"type":"Point","coordinates":[-122.6058167,38.9104545]},"properties":{"building_id":"node/358830141","building_name":"Deeper Life Christian Fellowship Church","amenity":"place_of_worship","candidate_type":"OSM public-use amenity","source":"OpenStreetMap via Overpass API","source_license":"ODbL"}},{"type":"Feature","id":"node/358830144","geometry":{"type":"Point","coordinates":[-122.9163849,39.0468393]},"properties":{"building_id":"node/358830144","building_name":"First Baptist Church","amenity":"place_of_worship","candidate_type":"OSM public-use amenity","source":"OpenStreetMap via Overpass API","source_license":"ODbL"}},{"type":"Feature","id":"node/358830146","geometry":{"type":"Point","coordinates":[-122.8392609,38.9797296]},"properties":{"building_id":"node/358830146","building_name":"Gard Street Elementary School","amenity":"school","candidate_type":"OSM public-use amenity","source":"OpenStreetMap via Overpass API","source_license":"ODbL"}},{"type":"Feature","id":"node/358830149","geometry":{"type":"Point","coordinates":[-122.8324929,38.9610094]},"properties":{"building_id":"node/358830149","building_name":"Grace Evangelical Free Church","amenity":"place_of_worship","candidate_type":"OSM public-use amenity","source":"OpenStreetMap via Overpass API","source_license":"ODbL"}},{"type":"Feature","id":"node/358830154","geometry":{"type":"Point","coordinates":[-122.8299927,38.9743421]},"properties":{"building_id":"node/358830154","building_name":"Kelseyville High School","amenity":"school","candidate_type":"OSM public-use amenity","source":"OpenStreetMap via Overpass API","source_license":"ODbL"}},{"type":"Feature","id":"node/358830160","geometry":{"type":"Point","coordinates":[-122.8208257,38.9765642]},"properties":{"building_id":"node/358830160","building_name":"Kelseyville Primary School","amenity":"school","candidate_type":"OSM public-use amenity","source":"OpenStreetMap via Overpass API","source_license":"ODbL"}},{"type":"Feature","id":"node/358830169","geometry":{"type":"Point","coordinates":[-122.9164911,39.0387651]},"properties":{"building_id":"node/358830169","building_name":"Lakeport Christian Center","amenity":"place_of_worship","candidate_type":"OSM public-use amenity","source":"OpenStreetMap via Overpass API","source_license":"ODbL"}},{"type":"Feature","id":"node/358830176","geometry":{"type":"Point","coordinates":[-122.6084028,38.9106041]},"properties":{"building_id":"node/358830176","building_name":"Lower Lake Community United Methodist Church","amenity":"place_of_worship","candidate_type":"OSM public-use amenity","source":"OpenStreetMap via Overpass API","source_license":"ODbL"}},{"type":"Feature","id":"node/358830177","geometry":{"type":"Point","coordinates":[-122.6083167,38.9162877]},"properties":{"building_id":"node/358830177","building_name":"Lower Lake Elementary School","amenity":"school","candidate_type":"OSM public-use amenity","source":"OpenStreetMap via Overpass API","source_license":"ODbL"}},{"type":"Feature","id":"node/358830187","geometry":{"type":"Point","coordinates":[-122.8197145,38.9765642]},"properties":{"building_id":"node/358830187","building_name":"Mountain Vista Middle School","amenity":"school","candidate_type":"OSM public-use amenity","source":"OpenStreetMap via Overpass API","source_license":"ODbL"}},{"type":"Feature","id":"node/358830190","geometry":{"type":"Point","coordinates":[-122.9255518,39.0401729]},"properties":{"building_id":"node/358830190","building_name":"New Life Foursquare Church","amenity":"place_of_worship","candidate_type":"OSM public-use amenity","source":"OpenStreetMap via Overpass API","source_license":"ODbL"}},{"type":"Feature","id":"node/358830193","geometry":{"type":"Point","coordinates":[-122.836104,38.976842]},"properties":{"building_id":"node/358830193","building_name":"Presbyterian Church of Kelseyville","amenity":"place_of_worship","candidate_type":"OSM public-use amenity","source":"OpenStreetMap via Overpass API","source_license":"ODbL"}},{"type":"Feature","id":"node/358830194","geometry":{"type":"Point","coordinates":[-122.792413,39.0914029]},"properties":{"building_id":"node/358830194","building_name":"Queen of the Rosary Catholic Church","amenity":"place_of_worship","candidate_type":"OSM public-use amenity","source":"OpenStreetMap via Overpass API","source_license":"ODbL"}},{"type":"Feature","id":"node/358830197","geometry":{"type":"Point","coordinates":[-122.6383176,39.0137844]},"properties":{"building_id":"node/358830197","building_name":"Saint Anthonys Catholic Church","amenity":"place_of_worship","candidate_type":"OSM public-use amenity","source":"OpenStreetMap via Overpass API","source_license":"ODbL"}},{"type":"Feature","id":"node/358830198","geometry":{"type":"Point","coordinates":[-122.9158293,39.049617]},"properties":{"building_id":"node/358830198","building_name":"Saint Johns Episcopal Church","amenity":"place_of_worship","candidate_type":"OSM public-use amenity","source":"OpenStreetMap via Overpass API","source_license":"ODbL"}},{"type":"Feature","id":"node/358830200","geometry":{"type":"Point","coordinates":[-122.915473,39.047362]},"properties":{"building_id":"node/358830200","building_name":"Saint Mary Immaculate Roman Catholic Church","amenity":"place_of_worship","candidate_type":"OSM public-use amenity","source":"OpenStreetMap via Overpass API","source_license":"ODbL"}},{"type":"Feature","id":"node/358830201","geometry":{"type":"Point","coordinates":[-122.836525,38.9774725]},"properties":{"building_id":"node/358830201","building_name":"Saint Peter Roman Catholic Church","amenity":"place_of_worship","candidate_type":"OSM public-use amenity","source":"OpenStreetMap via Overpass API","source_license":"ODbL"}},{"type":"Feature","id":"node/358830202","geometry":{"type":"Point","coordinates":[-122.9172182,39.0473948]},"properties":{"building_id":"node/358830202","building_name":"Seventh Day Adventist Church","amenity":"place_of_worship","candidate_type":"OSM public-use amenity","source":"OpenStreetMap via Overpass API","source_license":"ODbL"}},{"type":"Feature","id":"node/358830204","geometry":{"type":"Point","coordinates":[-122.7964519,39.097845]},"properties":{"building_id":"node/358830204","building_name":"Sonrise Assembly Charismatic Church","amenity":"place_of_worship","candidate_type":"OSM public-use amenity","source":"OpenStreetMap via Overpass API","source_license":"ODbL"}},{"type":"Feature","id":"node/358830205","geometry":{"type":"Point","coordinates":[-122.6047055,38.914621]},"properties":{"building_id":"node/358830205","building_name":"William C Carle Continuation School","amenity":"school","candidate_type":"OSM public-use amenity","source":"OpenStreetMap via Overpass API","source_license":"ODbL"}},{"type":"Feature","id":"node/358830211","geometry":{"type":"Point","coordinates":[-122.6497072,38.962953]},"properties":{"building_id":"node/358830211","building_name":"Apostolic Community Church","amenity":"place_of_worship","candidate_type":"OSM public-use amenity","source":"OpenStreetMap via Overpass API","source_license":"ODbL"}},{"type":"Feature","id":"node/358830212","geometry":{"type":"Point","coordinates":[-122.6441514,38.9621196]},"properties":{"building_id":"node/358830212","building_name":"Calvary Chapel of Clearlake","amenity":"place_of_worship","candidate_type":"OSM public-use amenity","source":"OpenStreetMap via Overpass API","source_license":"ODbL"}},{"type":"Feature","id":"node/358830213","geometry":{"type":"Point","coordinates":[-122.6413735,38.9535088]},"properties":{"building_id":"node/358830213","building_name":"Clearlake Community United Methodist Church","amenity":"place_of_worship","candidate_type":"OSM public-use amenity","source":"OpenStreetMap via Overpass API","source_license":"ODbL"}},{"type":"Feature","id":"node/358830218","geometry":{"type":"Point","coordinates":[-122.6269511,38.9509084]},"properties":{"building_id":"node/358830218","building_name":"First Assembly of God Church","amenity":"place_of_worship","candidate_type":"OSM public-use amenity","source":"OpenStreetMap via Overpass API","source_license":"ODbL"}},{"type":"Feature","id":"node/358830219","geometry":{"type":"Point","coordinates":[-122.6410957,38.9537866]},"properties":{"building_id":"node/358830219","building_name":"First Baptist Church","amenity":"place_of_worship","candidate_type":"OSM public-use amenity","source":"OpenStreetMap via Overpass API","source_license":"ODbL"}},{"type":"Feature","id":"node/358830220","geometry":{"type":"Point","coordinates":[-122.614152,38.7551821]},"properties":{"building_id":"node/358830220","building_name":"Middletown High School","amenity":"school","candidate_type":"OSM public-use amenity","source":"OpenStreetMap via Overpass API","source_license":"ODbL"}},{"type":"Feature","id":"node/358830223","geometry":{"type":"Point","coordinates":[-122.6131647,38.7553153]},"properties":{"building_id":"node/358830223","building_name":"Middletown Middle School","amenity":"school","candidate_type":"OSM public-use amenity","source":"OpenStreetMap via Overpass API","source_license":"ODbL"}},{"type":"Feature","id":"node/358830224","geometry":{"type":"Point","coordinates":[-122.6372066,38.9629529]},"properties":{"building_id":"node/358830224","building_name":"Neighborhood Pentecostal Holiness Church","amenity":"place_of_worship","candidate_type":"OSM public-use amenity","source":"OpenStreetMap via Overpass API","source_license":"ODbL"}},{"type":"Feature","id":"node/358830228","geometry":{"type":"Point","coordinates":[-122.6435958,38.9618418]},"properties":{"building_id":"node/358830228","building_name":"Saint Johns Lutheran Church","amenity":"place_of_worship","candidate_type":"OSM public-use amenity","source":"OpenStreetMap via Overpass API","source_license":"ODbL"}},{"type":"Feature","id":"node/358831231","geometry":{"type":"Point","coordinates":[-123.0177783,38.7960184]},"properties":{"building_id":"node/358831231","building_name":"Cloverdale Neighborhood Church","amenity":"place_of_worship","candidate_type":"OSM public-use amenity","source":"OpenStreetMap via Overpass API","source_license":"ODbL"}},{"type":"Feature","id":"node/358831238","geometry":{"type":"Point","coordinates":[-123.0163893,38.8065734]},"properties":{"building_id":"node/358831238","building_name":"Episcopal Church of the Good Shepherd","amenity":"place_of_worship","candidate_type":"OSM public-use amenity","source":"OpenStreetMap via Overpass API","source_license":"ODbL"}},{"type":"Feature","id":"node/358831241","geometry":{"type":"Point","coordinates":[-123.0230561,38.8154619]},"properties":{"building_id":"node/358831241","building_name":"Grace Lutheran Church","amenity":"place_of_worship","candidate_type":"OSM public-use amenity","source":"OpenStreetMap via Overpass API","source_license":"ODbL"}},{"type":"Feature","id":"node/358831245","geometry":{"type":"Point","coordinates":[-123.0252785,38.803518]},"properties":{"building_id":"node/358831245","building_name":"Parkside Christian Chapel","amenity":"place_of_worship","candidate_type":"OSM public-use amenity","source":"OpenStreetMap via Overpass API","source_license":"ODbL"}},{"type":"Feature","id":"node/358831248","geometry":{"type":"Point","coordinates":[-123.0208339,38.8099066]},"properties":{"building_id":"node/358831248","building_name":"United Church of Cloverdale","amenity":"place_of_worship","candidate_type":"OSM public-use amenity","source":"OpenStreetMap via Overpass API","source_license":"ODbL"}},{"type":"Feature","id":"node/358860995","geometry":{"type":"Point","coordinates":[-122.9163772,39.0457896]},"properties":{"building_id":"node/358860995","building_name":"Clear Lake Baptist Church","amenity":"place_of_worship","candidate_type":"OSM public-use amenity","source":"OpenStreetMap via Overpass API","source_license":"ODbL"}},{"type":"Feature","id":"node/368171828","geometry":{"type":"Point","coordinates":[-123.0177783,38.8062956]},"properties":{"building_id":"node/368171828","building_name":"Cloverdale City Hall","amenity":"townhall","candidate_type":"OSM public-use amenity","source":"OpenStreetMap via Overpass API","source_license":"ODbL"}},{"type":"Feature","id":"node/368171855","geometry":{"type":"Point","coordinates":[-122.9144209,39.0434078]},"properties":{"building_id":"node/368171855","building_name":"Lakeport City Hall","amenity":"townhall","candidate_type":"OSM public-use amenity","source":"OpenStreetMap via Overpass API","source_license":"ODbL"}},{"type":"Feature","id":"node/368171856","geometry":{"type":"Point","coordinates":[-122.6490394,38.9613649]},"properties":{"building_id":"node/368171856","building_name":"Clearlake City Hall","amenity":"townhall","candidate_type":"OSM public-use amenity","source":"OpenStreetMap via Overpass API","source_license":"ODbL"}},{"type":"Feature","id":"node/6008316170","geometry":{"type":"Point","coordinates":[-122.7242132,38.8370683]},"properties":{"building_id":"node/6008316170","building_name":"Cobb Mountain Comm Fellowship","amenity":"place_of_worship","candidate_type":"OSM public-use amenity","source":"OpenStreetMap via Overpass API","source_license":"ODbL"}},{"type":"Feature","id":"node/8392255650","geometry":{"type":"Point","coordinates":[-122.7659723,38.9123022]},"properties":{"building_id":"node/8392255650","building_name":"Kelsey-Cobb Fire Station","amenity":"fire_station","candidate_type":"OSM public-use amenity","source":"OpenStreetMap via Overpass API","source_license":"ODbL"}},{"type":"Feature","id":"node/8392343397","geometry":{"type":"Point","coordinates":[-122.7118612,39.023744]},"properties":{"building_id":"node/8392343397","building_name":"Cal Fire Clearlake Oak Fire Station","amenity":"fire_station","candidate_type":"OSM public-use amenity","source":"OpenStreetMap via Overpass API","source_license":"ODbL"}},{"type":"Feature","id":"node/8392343398","geometry":{"type":"Point","coordinates":[-122.6733743,39.0249065]},"properties":{"building_id":"node/8392343398","building_name":"Northshore Fire Protection District Station 75","amenity":"fire_station","candidate_type":"OSM public-use amenity","source":"OpenStreetMap via Overpass API","source_license":"ODbL"}},{"type":"Feature","id":"node/8657015505","geometry":{"type":"Point","coordinates":[-122.801758,39.0973415]},"properties":{"building_id":"node/8657015505","building_name":"Lucerne Community Church","amenity":"place_of_worship","candidate_type":"OSM public-use amenity","source":"OpenStreetMap via Overpass API","source_license":"ODbL"}},{"type":"Feature","id":"node/8657018700","geometry":{"type":"Point","coordinates":[-122.7927422,39.0911347]},"properties":{"building_id":"node/8657018700","building_name":"Lucerne Alpine Senior Center","amenity":"community_centre","candidate_type":"OSM public-use amenity","source":"OpenStreetMap via Overpass API","source_license":"ODbL"}},{"type":"Feature","id":"node/11811031673","geometry":{"type":"Point","coordinates":[-122.6164408,38.7567573]},"properties":{"building_id":"node/11811031673","building_name":"Minnie Cannon Elementary School","amenity":"school","candidate_type":"OSM public-use amenity","source":"OpenStreetMap via Overpass API","source_license":"ODbL"}},{"type":"Feature","id":"node/13592723173","geometry":{"type":"Point","coordinates":[-122.6107319,38.910527]},"properties":{"building_id":"node/13592723173","building_name":"Jones & Lewis Clear Lake Memorial Chapel","amenity":"place_of_worship","candidate_type":"OSM public-use amenity","source":"OpenStreetMap via Overpass API","source_license":"ODbL"}},{"type":"Feature","id":"way/44479529","geometry":{"type":"Point","coordinates":[-122.6667511,39.0285019]},"properties":{"building_id":"way/44479529","building_name":"East Lake Elementary School","amenity":"school","candidate_type":"OSM public-use amenity","source":"OpenStreetMap via Overpass API","source_license":"ODbL"}},{"type":"Feature","id":"way/44480480","geometry":{"type":"Point","coordinates":[-122.7900164,39.0839634]},"properties":{"building_id":"way/44480480","building_name":"Lucerne Elementary School","amenity":"school","candidate_type":"OSM public-use amenity","source":"OpenStreetMap via Overpass API","source_license":"ODbL"}},{"type":"Feature","id":"way/158011099","geometry":{"type":"Point","coordinates":[-122.613163,38.7568597]},"properties":{"building_id":"way/158011099","building_name":"OSM school","amenity":"school","candidate_type":"OSM public-use amenity","source":"OpenStreetMap via Overpass API","source_license":"ODbL"}},{"type":"Feature","id":"way/164658055","geometry":{"type":"Point","coordinates":[-122.6225117,38.7536826]},"properties":{"building_id":"way/164658055","building_name":"South Lake County Fire Protection","amenity":"fire_station","candidate_type":"OSM public-use amenity","source":"OpenStreetMap via Overpass API","source_license":"ODbL"}},{"type":"Feature","id":"way/195463215","geometry":{"type":"Point","coordinates":[-123.0229607,38.8099148]},"properties":{"building_id":"way/195463215","building_name":"Cloverdale High School","amenity":"school","candidate_type":"OSM public-use amenity","source":"OpenStreetMap via Overpass API","source_license":"ODbL"}},{"type":"Feature","id":"way/195463283","geometry":{"type":"Point","coordinates":[-123.0252559,38.812267]},"properties":{"building_id":"way/195463283","building_name":"Jefferson Elementary School","amenity":"school","candidate_type":"OSM public-use amenity","source":"OpenStreetMap via Overpass API","source_license":"ODbL"}},{"type":"Feature","id":"way/195463404","geometry":{"type":"Point","coordinates":[-123.0194581,38.8019624]},"properties":{"building_id":"way/195463404","building_name":"Washington Middle School","amenity":"school","candidate_type":"OSM public-use amenity","source":"OpenStreetMap via Overpass API","source_license":"ODbL"}},{"type":"Feature","id":"way/371277624","geometry":{"type":"Point","coordinates":[-122.6146639,38.7511332]},"properties":{"building_id":"way/371277624","building_name":"OSM place of worship","amenity":"place_of_worship","candidate_type":"OSM public-use amenity","source":"OpenStreetMap via Overpass API","source_license":"ODbL"}},{"type":"Feature","id":"way/371376443","geometry":{"type":"Point","coordinates":[-122.7218095,38.8302832]},"properties":{"building_id":"way/371376443","building_name":"Cobb Mountain Elementary School","amenity":"school","candidate_type":"OSM public-use amenity","source":"OpenStreetMap via Overpass API","source_license":"ODbL"}},{"type":"Feature","id":"way/371392182","geometry":{"type":"Point","coordinates":[-122.5540941,38.7967361]},"properties":{"building_id":"way/371392182","building_name":"Hidden Valley Fire Station","amenity":"fire_station","candidate_type":"OSM public-use amenity","source":"OpenStreetMap via Overpass API","source_license":"ODbL"}},{"type":"Feature","id":"way/458313786","geometry":{"type":"Point","coordinates":[-122.6324891,38.9363532]},"properties":{"building_id":"way/458313786","building_name":"The Church of Jesus Christ of Latter-day Saints","amenity":"place_of_worship","candidate_type":"OSM public-use amenity","source":"OpenStreetMap via Overpass API","source_license":"ODbL"}},{"type":"Feature","id":"way/458942538","geometry":{"type":"Point","coordinates":[-122.6205753,38.9637127]},"properties":{"building_id":"way/458942538","building_name":"Church of the Nazarene","amenity":"place_of_worship","candidate_type":"OSM public-use amenity","source":"OpenStreetMap via Overpass API","source_license":"ODbL"}},{"type":"Feature","id":"way/458946620","geometry":{"type":"Point","coordinates":[-122.6287423,38.9504831]},"properties":{"building_id":"way/458946620","building_name":"Adventist Health Clear Lake Medical Office - Clearlake, Live Well Program","amenity":"clinic","candidate_type":"OSM public-use amenity","source":"OpenStreetMap via Overpass API","source_license":"ODbL"}},{"type":"Feature","id":"way/577779410","geometry":{"type":"Point","coordinates":[-122.906456,39.1050193]},"properties":{"building_id":"way/577779410","building_name":"Sutter Lakeside Hospital","amenity":"hospital","candidate_type":"OSM public-use amenity","source":"OpenStreetMap via Overpass API","source_license":"ODbL"}},{"type":"Feature","id":"way/577781339","geometry":{"type":"Point","coordinates":[-122.6199421,38.9351312]},"properties":{"building_id":"way/577781339","building_name":"Adventist Health Clear Lake","amenity":"hospital","candidate_type":"OSM public-use amenity","source":"OpenStreetMap via Overpass API","source_license":"ODbL"}},{"type":"Feature","id":"way/637278361","geometry":{"type":"Point","coordinates":[-122.7197786,38.8609984]},"properties":{"building_id":"way/637278361","building_name":"Our Lady of the Lake Catholic Church","amenity":"place_of_worship","candidate_type":"OSM public-use amenity","source":"OpenStreetMap via Overpass API","source_license":"ODbL"}},{"type":"Feature","id":"way/694395827","geometry":{"type":"Point","coordinates":[-122.8401261,38.9784329]},"properties":{"building_id":"way/694395827","building_name":"Kelseyville United Methodist Church","amenity":"place_of_worship","candidate_type":"OSM public-use amenity","source":"OpenStreetMap via Overpass API","source_license":"ODbL"}},{"type":"Feature","id":"way/704439285","geometry":{"type":"Point","coordinates":[-123.0207415,38.8079324]},"properties":{"building_id":"way/704439285","building_name":"Johanna Echols Hansen High School","amenity":"school","candidate_type":"OSM public-use amenity","source":"OpenStreetMap via Overpass API","source_license":"ODbL"}},{"type":"Feature","id":"way/738713080","geometry":{"type":"Point","coordinates":[-122.9007817,39.1658428]},"properties":{"building_id":"way/738713080","building_name":"Upper Lake Union High School","amenity":"school","candidate_type":"OSM public-use amenity","source":"OpenStreetMap via Overpass API","source_license":"ODbL"}},{"type":"Feature","id":"way/818773989","geometry":{"type":"Point","coordinates":[-122.5416812,39.3731959]},"properties":{"building_id":"way/818773989","building_name":"Stonyford Fire Department","amenity":"fire_station","candidate_type":"OSM public-use amenity","source":"OpenStreetMap via Overpass API","source_license":"ODbL"}},{"type":"Feature","id":"way/820114906","geometry":{"type":"Point","coordinates":[-122.514843,39.3034668]},"properties":{"building_id":"way/820114906","building_name":"Stonyford FIre Department- Lodoga-","amenity":"fire_station","candidate_type":"OSM public-use amenity","source":"OpenStreetMap via Overpass API","source_license":"ODbL"}},{"type":"Feature","id":"way/821998693","geometry":{"type":"Point","coordinates":[-122.5494217,39.3780625]},"properties":{"building_id":"way/821998693","building_name":"Stonyford Work Center Fire Station","amenity":"fire_station","candidate_type":"OSM public-use amenity","source":"OpenStreetMap via Overpass API","source_license":"ODbL"}},{"type":"Feature","id":"way/832673031","geometry":{"type":"Point","coordinates":[-123.0170788,38.7885773]},"properties":{"building_id":"way/832673031","building_name":"CAL FIRE Sonoma Lake Napa Unit - Cloverdale","amenity":"fire_station","candidate_type":"OSM public-use amenity","source":"OpenStreetMap via Overpass API","source_license":"ODbL"}},{"type":"Feature","id":"way/953607076","geometry":{"type":"Point","coordinates":[-122.6445096,38.9596604]},"properties":{"building_id":"way/953607076","building_name":"Burns Valley Elementary School","amenity":"school","candidate_type":"OSM public-use amenity","source":"OpenStreetMap via Overpass API","source_license":"ODbL"}},{"type":"Feature","id":"way/953607078","geometry":{"type":"Point","coordinates":[-122.649141,38.9707316]},"properties":{"building_id":"way/953607078","building_name":"Pomo Elementary School","amenity":"school","candidate_type":"OSM public-use amenity","source":"OpenStreetMap via Overpass API","source_license":"ODbL"}},{"type":"Feature","id":"way/953607086","geometry":{"type":"Point","coordinates":[-122.6156502,38.9322714]},"properties":{"building_id":"way/953607086","building_name":"Lake County Campus of Woodland Community College","amenity":"college","candidate_type":"OSM public-use amenity","source":"OpenStreetMap via Overpass API","source_license":"ODbL"}},{"type":"Feature","id":"way/953607087","geometry":{"type":"Point","coordinates":[-122.6156589,38.9337738]},"properties":{"building_id":"way/953607087","building_name":"Konocti Education Center","amenity":"school","candidate_type":"OSM public-use amenity","source":"OpenStreetMap via Overpass API","source_license":"ODbL"}},{"type":"Feature","id":"way/977729671","geometry":{"type":"Point","coordinates":[-122.8365285,38.9774548]},"properties":{"building_id":"way/977729671","building_name":"OSM place of worship","amenity":"place_of_worship","candidate_type":"OSM public-use amenity","source":"OpenStreetMap via Overpass API","source_license":"ODbL"}},{"type":"Feature","id":"way/977775977","geometry":{"type":"Point","coordinates":[-122.621954,38.9553991]},"properties":{"building_id":"way/977775977","building_name":"Kingdom Hall of Jehovah's Witnesses","amenity":"place_of_worship","candidate_type":"OSM public-use amenity","source":"OpenStreetMap via Overpass API","source_license":"ODbL"}},{"type":"Feature","id":"way/1006861745","geometry":{"type":"Point","coordinates":[-123.0190458,38.7987394]},"properties":{"building_id":"way/1006861745","building_name":"First Baptist Church","amenity":"place_of_worship","candidate_type":"OSM public-use amenity","source":"OpenStreetMap via Overpass API","source_license":"ODbL"}},{"type":"Feature","id":"way/1021226868","geometry":{"type":"Point","coordinates":[-122.9948795,38.766806]},"properties":{"building_id":"way/1021226868","building_name":"OSM place of worship","amenity":"place_of_worship","candidate_type":"OSM public-use amenity","source":"OpenStreetMap via Overpass API","source_license":"ODbL"}},{"type":"Feature","id":"way/1079931091","geometry":{"type":"Point","coordinates":[-122.6732708,39.0248664]},"properties":{"building_id":"way/1079931091","building_name":"OSM fire station","amenity":"fire_station","candidate_type":"OSM public-use amenity","source":"OpenStreetMap via Overpass API","source_license":"ODbL"}},{"type":"Feature","id":"way/1107654355","geometry":{"type":"Point","coordinates":[-122.905415,39.1653185]},"properties":{"building_id":"way/1107654355","building_name":"Upper Lake Elementary School","amenity":"school","candidate_type":"OSM public-use amenity","source":"OpenStreetMap via Overpass API","source_license":"ODbL"}},{"type":"Feature","id":"way/1150049802","geometry":{"type":"Point","coordinates":[-122.9075528,39.0011433]},"properties":{"building_id":"way/1150049802","building_name":"OSM place of worship","amenity":"place_of_worship","candidate_type":"OSM public-use amenity","source":"OpenStreetMap via Overpass API","source_license":"ODbL"}},{"type":"Feature","id":"way/1150323735","geometry":{"type":"Point","coordinates":[-122.9100705,39.1664448]},"properties":{"building_id":"way/1150323735","building_name":"Kingdom Hall of Jehovahs Witnesses","amenity":"place_of_worship","candidate_type":"OSM public-use amenity","source":"OpenStreetMap via Overpass API","source_license":"ODbL"}},{"type":"Feature","id":"way/1160089604","geometry":{"type":"Point","coordinates":[-122.9778945,38.7630887]},"properties":{"building_id":"way/1160089604","building_name":"Our Lady of Mount Carmel Catholic Church","amenity":"place_of_worship","candidate_type":"OSM public-use amenity","source":"OpenStreetMap via Overpass API","source_license":"ODbL"}},{"type":"Feature","id":"way/1160093629","geometry":{"type":"Point","coordinates":[-123.0176169,38.7994766]},"properties":{"building_id":"way/1160093629","building_name":"Northern Sonoma County Fire - Cloverdale","amenity":"fire_station","candidate_type":"OSM public-use amenity","source":"OpenStreetMap via Overpass API","source_license":"ODbL"}},{"type":"Feature","id":"way/1202697810","geometry":{"type":"Point","coordinates":[-123.0491051,38.9818681]},"properties":{"building_id":"way/1202697810","building_name":"Saint Francis Indian Mission","amenity":"place_of_worship","candidate_type":"OSM public-use amenity","source":"OpenStreetMap via Overpass API","source_license":"ODbL"}},{"type":"Feature","id":"way/1203023808","geometry":{"type":"Point","coordinates":[-123.0196619,38.7973884]},"properties":{"building_id":"way/1203023808","building_name":"Saint Peter Catholic Church","amenity":"place_of_worship","candidate_type":"OSM public-use amenity","source":"OpenStreetMap via Overpass API","source_license":"ODbL"}},{"type":"Feature","id":"way/1203248450","geometry":{"type":"Point","coordinates":[-122.6421803,38.9553609]},"properties":{"building_id":"way/1203248450","building_name":"Queen of Peace Catholic Church","amenity":"place_of_worship","candidate_type":"OSM public-use amenity","source":"OpenStreetMap via Overpass API","source_license":"ODbL"}},{"type":"Feature","id":"way/1203266390","geometry":{"type":"Point","coordinates":[-122.8391474,38.9796716]},"properties":{"building_id":"way/1203266390","building_name":"OSM school","amenity":"school","candidate_type":"OSM public-use amenity","source":"OpenStreetMap via Overpass API","source_license":"ODbL"}},{"type":"Feature","id":"way/1203271145","geometry":{"type":"Point","coordinates":[-122.915512,39.0473494]},"properties":{"building_id":"way/1203271145","building_name":"Saint Mary Immaculate Catholic Church","amenity":"place_of_worship","candidate_type":"OSM public-use amenity","source":"OpenStreetMap via Overpass API","source_license":"ODbL"}},{"type":"Feature","id":"way/1203272106","geometry":{"type":"Point","coordinates":[-122.7921991,39.0913392]},"properties":{"building_id":"way/1203272106","building_name":"Queen of the Rosary Catholic Church","amenity":"place_of_worship","candidate_type":"OSM public-use amenity","source":"OpenStreetMap via Overpass API","source_license":"ODbL"}},{"type":"Feature","id":"way/1203287246","geometry":{"type":"Point","coordinates":[-122.7178997,38.8629646]},"properties":{"building_id":"way/1203287246","building_name":"OSM fire station","amenity":"fire_station","candidate_type":"OSM public-use amenity","source":"OpenStreetMap via Overpass API","source_license":"ODbL"}},{"type":"Feature","id":"way/1203288883","geometry":{"type":"Point","coordinates":[-122.8101673,38.9111345]},"properties":{"building_id":"way/1203288883","building_name":"Shambhala","amenity":"place_of_worship","candidate_type":"OSM public-use amenity","source":"OpenStreetMap via Overpass API","source_license":"ODbL"}},{"type":"Feature","id":"way/1203302430","geometry":{"type":"Point","coordinates":[-122.810163,38.9113519]},"properties":{"building_id":"way/1203302430","building_name":"OSM place of worship","amenity":"place_of_worship","candidate_type":"OSM public-use amenity","source":"OpenStreetMap via Overpass API","source_license":"ODbL"}},{"type":"Feature","id":"way/1203315174","geometry":{"type":"Point","coordinates":[-122.6349111,38.9609828]},"properties":{"building_id":"way/1203315174","building_name":"OSM fire station","amenity":"fire_station","candidate_type":"OSM public-use amenity","source":"OpenStreetMap via Overpass API","source_license":"ODbL"}},{"type":"Feature","id":"way/1203330054","geometry":{"type":"Point","coordinates":[-122.6408052,38.9624019]},"properties":{"building_id":"way/1203330054","building_name":"Lake County Tribal Health Southshore Clinic","amenity":"clinic","candidate_type":"OSM public-use amenity","source":"OpenStreetMap via Overpass API","source_license":"ODbL"}},{"type":"Feature","id":"way/1203333747","geometry":{"type":"Point","coordinates":[-122.6491656,38.9618363]},"properties":{"building_id":"way/1203333747","building_name":"Torre Fuerte","amenity":"place_of_worship","candidate_type":"OSM public-use amenity","source":"OpenStreetMap via Overpass API","source_license":"ODbL"}},{"type":"Feature","id":"way/1203375200","geometry":{"type":"Point","coordinates":[-122.7207996,38.8220959]},"properties":{"building_id":"way/1203375200","building_name":"OSM fire station","amenity":"fire_station","candidate_type":"OSM public-use amenity","source":"OpenStreetMap via Overpass API","source_license":"ODbL"}},{"type":"Feature","id":"way/1203769856","geometry":{"type":"Point","coordinates":[-122.8104111,38.9112452]},"properties":{"building_id":"way/1203769856","building_name":"OSM place of worship","amenity":"place_of_worship","candidate_type":"OSM public-use amenity","source":"OpenStreetMap via Overpass API","source_license":"ODbL"}},{"type":"Feature","id":"way/1203769857","geometry":{"type":"Point","coordinates":[-122.8099263,38.9112424]},"properties":{"building_id":"way/1203769857","building_name":"OSM place of worship","amenity":"place_of_worship","candidate_type":"OSM public-use amenity","source":"OpenStreetMap via Overpass API","source_license":"ODbL"}},{"type":"Feature","id":"way/1203769858","geometry":{"type":"Point","coordinates":[-122.8099289,38.9110262]},"properties":{"building_id":"way/1203769858","building_name":"OSM place of worship","amenity":"place_of_worship","candidate_type":"OSM public-use amenity","source":"OpenStreetMap via Overpass API","source_license":"ODbL"}},{"type":"Feature","id":"way/1203769859","geometry":{"type":"Point","coordinates":[-122.8101669,38.9109209]},"properties":{"building_id":"way/1203769859","building_name":"OSM place of worship","amenity":"place_of_worship","candidate_type":"OSM public-use amenity","source":"OpenStreetMap via Overpass API","source_license":"ODbL"}},{"type":"Feature","id":"way/1203769860","geometry":{"type":"Point","coordinates":[-122.8104023,38.9110318]},"properties":{"building_id":"way/1203769860","building_name":"OSM place of worship","amenity":"place_of_worship","candidate_type":"OSM public-use amenity","source":"OpenStreetMap via Overpass API","source_license":"ODbL"}},{"type":"Feature","id":"way/1211485324","geometry":{"type":"Point","coordinates":[-122.6306364,38.9658935]},"properties":{"building_id":"way/1211485324","building_name":"OSM community centre","amenity":"community_centre","candidate_type":"OSM public-use amenity","source":"OpenStreetMap via Overpass API","source_license":"ODbL"}},{"type":"Feature","id":"way/1211521637","geometry":{"type":"Point","coordinates":[-122.6246938,38.9325884]},"properties":{"building_id":"way/1211521637","building_name":"OSM college","amenity":"college","candidate_type":"OSM public-use amenity","source":"OpenStreetMap via Overpass API","source_license":"ODbL"}},{"type":"Feature","id":"way/1271892318","geometry":{"type":"Point","coordinates":[-122.6164249,38.7569536]},"properties":{"building_id":"way/1271892318","building_name":"OSM school","amenity":"school","candidate_type":"OSM public-use amenity","source":"OpenStreetMap via Overpass API","source_license":"ODbL"}},{"type":"Feature","id":"way/1278870653","geometry":{"type":"Point","coordinates":[-122.9196304,39.0531517]},"properties":{"building_id":"way/1278870653","building_name":"OSM place of worship","amenity":"place_of_worship","candidate_type":"OSM public-use amenity","source":"OpenStreetMap via Overpass API","source_license":"ODbL"}},{"type":"Feature","id":"way/1279218264","geometry":{"type":"Point","coordinates":[-122.9182124,39.0196318]},"properties":{"building_id":"way/1279218264","building_name":"Mendocino College Lake Center","amenity":"college","candidate_type":"OSM public-use amenity","source":"OpenStreetMap via Overpass API","source_license":"ODbL"}},{"type":"Feature","id":"way/1372752322","geometry":{"type":"Point","coordinates":[-122.9158164,39.0497165]},"properties":{"building_id":"way/1372752322","building_name":"OSM place of worship","amenity":"place_of_worship","candidate_type":"OSM public-use amenity","source":"OpenStreetMap via Overpass API","source_license":"ODbL"}},{"type":"Feature","id":"way/1379510237","geometry":{"type":"Point","coordinates":[-122.916462,39.0387588]},"properties":{"building_id":"way/1379510237","building_name":"OSM place of worship","amenity":"place_of_worship","candidate_type":"OSM public-use amenity","source":"OpenStreetMap via Overpass API","source_license":"ODbL"}},{"type":"Feature","id":"way/1387036224","geometry":{"type":"Point","coordinates":[-122.837634,38.9767974]},"properties":{"building_id":"way/1387036224","building_name":"OSM place of worship","amenity":"place_of_worship","candidate_type":"OSM public-use amenity","source":"OpenStreetMap via Overpass API","source_license":"ODbL"}},{"type":"Feature","id":"way/1387048834","geometry":{"type":"Point","coordinates":[-122.833411,38.9699992]},"properties":{"building_id":"way/1387048834","building_name":"Konocti Christian Academy","amenity":"school","candidate_type":"OSM public-use amenity","source":"OpenStreetMap via Overpass API","source_license":"ODbL"}},{"type":"Feature","id":"way/1387069381","geometry":{"type":"Point","coordinates":[-122.9185382,39.0467809]},"properties":{"building_id":"way/1387069381","building_name":"OSM place of worship","amenity":"place_of_worship","candidate_type":"OSM public-use amenity","source":"OpenStreetMap via Overpass API","source_license":"ODbL"}},{"type":"Feature","id":"way/1387069431","geometry":{"type":"Point","coordinates":[-122.9163517,39.0466884]},"properties":{"building_id":"way/1387069431","building_name":"OSM place of worship","amenity":"place_of_worship","candidate_type":"OSM public-use amenity","source":"OpenStreetMap via Overpass API","source_license":"ODbL"}},{"type":"Feature","id":"way/1387069471","geometry":{"type":"Point","coordinates":[-122.9163398,39.0469442]},"properties":{"building_id":"way/1387069471","building_name":"OSM place of worship","amenity":"place_of_worship","candidate_type":"OSM public-use amenity","source":"OpenStreetMap via Overpass API","source_license":"ODbL"}},{"type":"Feature","id":"way/1387069472","geometry":{"type":"Point","coordinates":[-122.9173258,39.0474808]},"properties":{"building_id":"way/1387069472","building_name":"OSM place of worship","amenity":"place_of_worship","candidate_type":"OSM public-use amenity","source":"OpenStreetMap via Overpass API","source_license":"ODbL"}},{"type":"Feature","id":"way/1544866084","geometry":{"type":"Point","coordinates":[-122.5477388,39.3756792]},"properties":{"building_id":"way/1544866084","building_name":"Saint Mary of the Mountains Catholic Church","amenity":"place_of_worship","candidate_type":"OSM public-use amenity","source":"OpenStreetMap via Overpass API","source_license":"ODbL"}}]}